[{"OBJECT_NAME":"EAGLET-I","OBJECT_ID":"2018-099AJ","EPOCH":"2026-03-09T16:28:56.807904","MEAN_MOTION":15.12108145,"ECCENTRICITY":0.00104863,"INCLINATION":97.4369,"RA_OF_ASC_NODE":120.9821,"ARG_OF_PERICENTER":336.8524,"MEAN_ANOMALY":23.2233,"EPHEMERIS_TYPE":0,"CLASSIFICATION_TYPE":"U","NORAD_CAT_ID":43790,"ELEMENT_SET_NO":999,"REV_AT_EPOCH":39729,"BSTAR":0.0003526184,"MEAN_MOTION_DOT":6.017e-5,"MEAN_MOTION_DDOT":0},{"OBJECT_NAME":"STARLINK-4641","OBJECT_ID":"2022-107AG","EPOCH":"2026-03-09T21:24:11.129472","MEAN_MOTION":15.08837422,"ECCENTRICITY":0.00013285,"INCLINATION":53.216,"RA_OF_ASC_NODE":253.2472,"ARG_OF_PERICENTER":86.2475,"MEAN_ANOMALY":273.8669,"EPHEMERIS_TYPE":0,"CLASSIFICATION_TYPE":"U","NORAD_CAT_ID":53730,"ELEMENT_SET_NO":999,"REV_AT_EPOCH":19458,"BSTAR":1.0996683e-5,"MEAN_MOTION_DOT":-1.13e-6,"MEAN_MOTION_DDOT":0}]
